[{"OBJECT_NAME":"STARLINK-5733","OBJECT_ID":"2023-083BB","EPOCH":"2026-03-09T22:00:01.999584","MEAN_MOTION":15.06149978,"ECCENTRICITY":5.681e-5,"INCLINATION":43.0007,"RA_OF_ASC_NODE":67.2319,"ARG_OF_PERICENTER":318.587,"MEAN_ANOMALY":202.4702,"EPHEMERIS_TYPE":0,"CLASSIFICATION_TYPE":"U","NORAD_CAT_ID":56925,"ELEMENT_SET_NO":999,"REV_AT_EPOCH":577,"BSTAR":0.0040606094,"MEAN_MOTION_DOT":0.00060736,"MEAN_MOTION_DDOT":0},{"OBJECT_NAME":"FENGYUN 1C DEB","OBJECT_ID":"1999-025AXR","EPOCH":"2026-03-07T20:57:39.857472","MEAN_MOTION":14.72454359,"ECCENTRICITY":0.01891694,"INCLINATION":99.3486,"RA_OF_ASC_NODE":300.9473,"ARG_OF_PERICENTER":18.7054,"MEAN_ANOMALY":342.0979,"EPHEMERIS_TYPE":0,"CLASSIFICATION_TYPE":"U","NORAD_CAT_ID":30879,"ELEMENT_SET_NO":999,"REV_AT_EPOCH":63190,"BSTAR":0.0050043655,"MEAN_MOTION_DOT":0.00042311,"MEAN_MOTION_DDOT":0}]
